COMMENT,ORIGINATOR,NORAD_CAT_ID,OBJECT_NAME,OBJECT_TYPE,CLASSIFICATION_TYPE,INTLDES,EPOCH,EPOCH_MICROSECONDS,MEAN_MOTION,ECCENTRICITY,INCLINATION,RA_OF_ASC_NODE,ARG_OF_PERICENTER,MEAN_ANOMALY,EPHEMERIS_TYPE,ELEMENT_SET_NO,REV_AT_EPOCH,BSTAR,MEAN_MOTION_DOT,MEAN_MOTION_DDOT,FILE,TLE_LINE0,TLE_LINE1,TLE_LINE2,OBJECT_ID,OBJECT_NUMBER,SEMIMAJOR_AXIS,PERIOD,APOGEE,PERIGEE,DECAYED
"GENERATED VIA SPACETRACK.ORG API","18 SPCS","48888","SPACEBEE-103","PAYLOAD","U","21059K","2022-03-30 07:41:08","752416","15.14100153","0.0008761","97.5414","219.5124","24.3761","335.7883","0","999","4195","0.00059242","0.00010736","0","3380779","0 SPACEBEE-103","1 48888U 21059K   22089.32024019  .00010736  00000-0  59242-3 0  9997","2 48888  97.5414 219.5124 0008761  24.3761 335.7883 15.14100153 41954","2021-059K","48888","6901.849","95.106","529.760","517.667","0"
"GENERATED VIA SPACETRACK.ORG API","18 SPCS","48888","SPACEBEE-103","PAYLOAD","U","21059K","2022-03-30 20:22:28","351200","15.1411414","0.0008851","97.5418","220.0365","22.2073","337.954","0","999","4203","0.00071666","0.00013011","0","3380787","0 SPACEBEE-103","1 48888U 21059K   22089.84893925  .00013011  00000-0  71666-3 0  9997","2 48888  97.5418 220.0365 0008851  22.2073 337.9540 15.14114140 42030","2021-059K","48888","6901.806","95.105","529.780","517.562","0"
"GENERATED VIA SPACETRACK.ORG API","18 SPCS","48888","SPACEBEE-103","PAYLOAD","U","21059K","2022-03-31 04:18:17","835840","15.14126657","0.0008812","97.5422","220.3639","21.1511","339.0084","0","999","4208","0.00091622","0.00016666","0","3381173","0 SPACEBEE-103","1 48888U 21059K   22090.17937310  .00016666  00000-0  91622-3 0  9995","2 48888  97.5422 220.3639 0008812  21.1511 339.0084 15.14126657 42081","2021-059K","48888","6901.768","95.104","529.715","517.551","0"
"GENERATED VIA SPACETRACK.ORG API","18 SPCS","48888","SPACEBEE-103","PAYLOAD","U","21059K","2022-03-31 07:28:37","588224","15.14130586","0.0008807","97.5423","220.4948","20.8091","339.3497","0","999","4210","0.00091968","0.00016731","0","3381849","0 SPACEBEE-103","1 48888U 21059K   22090.31154616  .00016731  00000-0  91968-3 0  9997","2 48888  97.5423 220.4948 0008807  20.8091 339.3497 15.14130586 42109","2021-059K","48888","6901.756","95.104","529.700","517.543","0"
"GENERATED VIA SPACETRACK.ORG API","18 SPCS","48888","SPACEBEE-103","PAYLOAD","U","21059K","2022-03-31 20:09:56","291040","15.14146464","0.0008738","97.5426","221.0183","19.3091","340.847","0","999","4218","0.00096292","0.00017531","0","3382347","0 SPACEBEE-103","1 48888U 21059K   22090.84023485  .00017531  00000-0  96292-3 0  9998","2 48888  97.5426 221.0183 0008738  19.3091 340.8470 15.14146464 42184","2021-059K","48888","6901.708","95.103","529.604","517.542","0"
"GENERATED VIA SPACETRACK.ORG API","18 SPCS","48888","SPACEBEE-103","PAYLOAD","U","21059K","2022-04-01 07:16:04","699488","15.14159548","0.0008716","97.5429","221.4767","17.9447","342.209","0","999","4225","0.00085857","0.00015625","0","3383248","0 SPACEBEE-103","1 48888U 21059K   22091.30283217  .00015625  00000-0  85857-3 0  9998","2 48888  97.5429 221.4767 0008716  17.9447 342.2090 15.14159548 42253","2021-059K","48888","6901.668","95.102","529.549","517.518","0"
"GENERATED VIA SPACETRACK.ORG API","18 SPCS","48888","SPACEBEE-103","PAYLOAD","U","21059K","2022-04-01 07:16:04","699488","15.14159548","0.0008716","97.5429","221.4767","17.9447","342.209","0","999","4225","0.00085857","0.00015625","0","3383353","0 SPACEBEE-103","1 48888U 21059K   22091.30283217  .00015625  00000-0  85857-3 0  9998","2 48888  97.5429 221.4767 0008716  17.9447 342.2090 15.14159548 42253","2021-059K","48888","6901.668","95.102","529.549","517.518","0"
"GENERATED VIA SPACETRACK.ORG API","18 SPCS","48888","SPACEBEE-103","PAYLOAD","U","21059K","2022-04-01 19:57:22","328352","15.14180074","0.0008691","97.5433","222.0005","16.1366","344.014","0","999","4233","0.00095573","0.00017415","0","3383778","0 SPACEBEE-103","1 48888U 21059K   22091.83150843  .00017415  00000-0  95573-3 0  9999","2 48888  97.5433 222.0005 0008691  16.1366 344.0140 15.14180074 42336","2021-059K","48888","6901.606","95.101","529.469","517.473","0"
"GENERATED VIA SPACETRACK.ORG API","18 SPCS","48888","SPACEBEE-103","PAYLOAD","U","21059K","2022-04-02 19:44:46","418208","15.14211517","0.0008619","97.5435","222.9827","13.1009","347.0445","0","999","4248","0.00081115","0.00014778","0","3385229","0 SPACEBEE-103","1 48888U 21059K   22092.82275947  .00014778  00000-0  81115-3 0  9998","2 48888  97.5435 222.9827 0008619  13.1009 347.0445 15.14211517 42484","2021-059K","48888","6901.510","95.099","529.324","517.427","0"
"GENERATED VIA SPACETRACK.ORG API","18 SPCS","48888","SPACEBEE-103","PAYLOAD","U","21059K","2022-04-02 21:19:55","957440","15.14213758","0.0008618","97.5436","223.0482","12.9182","347.2269","0","999","4249","0.0008088","0.00014736","0","3385473","0 SPACEBEE-103","1 48888U 21059K   22092.88884210  .00014736  00000-0  80880-3 0  9995","2 48888  97.5436 223.0482 0008618  12.9182 347.2269 15.14213758 42498","2021-059K","48888","6901.504","95.099","529.316","517.421","0"
"GENERATED VIA SPACETRACK.ORG API","18 SPCS","48888","SPACEBEE-103","PAYLOAD","U","21059K","2022-04-03 21:07:18","254496","15.14241067","0.0008517","97.544","224.0309","10.032","350.108","0","999","4264","0.0007054","0.0001285","0","3386965","0 SPACEBEE-103","1 48888U 21059K   22093.88007239  .00012850  00000-0  70540-3 0  9991","2 48888  97.5440 224.0309 0008517  10.0320 350.1080 15.14241067 42648","2021-059K","48888","6901.421","95.097","529.164","517.408","0"
"GENERATED VIA SPACETRACK.ORG API","18 SPCS","48888","SPACEBEE-103","PAYLOAD","U","21059K","2022-04-04 03:27:55","916352","15.14250164","0.000849","97.5437","224.2927","8.8558","351.2822","0","999","4268","0.00078735","0.00014357","0","3387296","0 SPACEBEE-103","1 48888U 21059K   22094.14439718  .00014357  00000-0  78735-3 0  9990","2 48888  97.5437 224.2927 0008490   8.8558 351.2822 15.14250164 42688","2021-059K","48888","6901.393","95.097","529.117","517.399","0"
"GENERATED VIA SPACETRACK.ORG API","18 SPCS","48888","SPACEBEE-103","PAYLOAD","U","21059K","2022-04-04 08:13:24","97728","15.14256169","0.000848","97.5437","224.4892","8.165","351.9718","0","999","4271","0.00078648","0.00014344","0","3387897","0 SPACEBEE-103","1 48888U 21059K   22094.34264002  .00014344  00000-0  78648-3 0  9993","2 48888  97.5437 224.4892 0008480   8.1650 351.9718 15.14256169 42712","2021-059K","48888","6901.375","95.096","529.092","517.387","0"
"GENERATED VIA SPACETRACK.ORG API","18 SPCS","48888","SPACEBEE-103","PAYLOAD","U","21059K","2022-04-04 20:54:38","971296","15.14268808","0.0008422","97.5435","225.013","6.1311","354.0023","0","999","4279","0.00070755","0.00012899","0","3388506","0 SPACEBEE-103","1 48888U 21059K   22094.87128439  .00012899  00000-0  70755-3 0  9998","2 48888  97.5435 225.0130 0008422   6.1311 354.0023 15.14268808 42794","2021-059K","48888","6901.336","95.095","529.014","517.389","0"
"GENERATED VIA SPACETRACK.ORG API","18 SPCS","48888","SPACEBEE-103","PAYLOAD","U","21059K","2022-04-05 08:00:44","134560","15.14280212","0.0008384","97.5434","225.4715","4.4307","355.6997","0","999","4286","0.00063603","0.0001159","0","3389394","0 SPACEBEE-103","1 48888U 21059K   22095.33384415  .00011590  00000-0  63603-3 0  9999","2 48888  97.5434 225.4715 0008384   4.4307 355.6997 15.14280212 42867","2021-059K","48888","6901.302","95.095","528.953","517.381","0"
"GENERATED VIA SPACETRACK.ORG API","18 SPCS","48888","SPACEBEE-103","PAYLOAD","U","21059K","2022-04-05 08:00:44","134560","15.14280212","0.0008384","97.5434","225.4715","4.4307","355.6997","0","999","4286","0.00063603","0.0001159","0","3389439","0 SPACEBEE-103","1 48888U 21059K   22095.33384415  .00011590  00000-0  63603-3 0  9999","2 48888  97.5434 225.4715 0008384   4.4307 355.6997 15.14280212 42867","2021-059K","48888","6901.302","95.095","528.953","517.381","0"
"GENERATED VIA SPACETRACK.ORG API","18 SPCS","48888","SPACEBEE-103","PAYLOAD","U","21059K","2022-04-06 07:48:02","799360","15.14304334","0.0008331","97.5432","226.454","0.1668","359.9565","0","999","4301","0.00063825","0.00011639","0","3390907","0 SPACEBEE-103","1 48888U 21059K   22096.32503240  .00011639  00000-0  63825-3 0  9998","2 48888  97.5432 226.4540 0008331   0.1668 359.9565 15.14304334 43015","2021-059K","48888","6901.228","95.093","528.843","517.344","0"
"GENERATED VIA SPACETRACK.ORG API","18 SPCS","48888","SPACEBEE-103","PAYLOAD","U","21059K","2022-04-06 14:08:39","558336","15.14310964","0.0008344","97.5433","226.7159","359.0412","1.0802","0","999","4305","0.00068517","0.00012503","0","3391200","0 SPACEBEE-103","1 48888U 21059K   22096.58934674  .00012503  00000-0  68517-3 0  9999","2 48888  97.5433 226.7159 0008344 359.0412   1.0802 15.14310964 43051","2021-059K","48888","6901.208","95.093","528.832","517.315","0"
"GENERATED VIA SPACETRACK.ORG API","18 SPCS","48888","SPACEBEE-103","PAYLOAD","U","21059K","2022-04-06 14:08:39","558336","15.14310964","0.0008344","97.5433","226.7159","359.0412","1.0802","0","999","4305","0.00068517","0.00012503","0","3391320","0 SPACEBEE-103","1 48888U 21059K   22096.58934674  .00012503  00000-0  68517-3 0  9999","2 48888  97.5433 226.7159 0008344 359.0412   1.0802 15.14310964 43051","2021-059K","48888","6901.208","95.093","528.832","517.315","0"
"GENERATED VIA SPACETRACK.ORG API","18 SPCS","48888","SPACEBEE-103","PAYLOAD","U","21059K","2022-04-06 22:04:25","384800","15.14318584","0.0008343","97.5432","227.0433","357.5256","2.5932","0","999","4310","0.00067517","0.00012322","0","3391885","0 SPACEBEE-103","1 48888U 21059K   22096.91973825  .00012322  00000-0  67517-3 0  9995","2 48888  97.5432 227.0433 0008343 357.5256   2.5932 15.14318584 43109","2021-059K","48888","6901.185","95.092","528.808","517.292","0"
